{"type": "FeatureCollection", "features": [ {"type": "Feature", "properties": {"norad_id": 33870, "name": "IRIDIUM 33 DEB", "group": "iridium-33-debris", "lat": -82.78521248383404, "lon": -97.33366331065629, "alt_km": 756.2778375426233, "timestamp": "2025-12-25T22:42:17.398111+00:00", "meta": {"OBJECT_NAME": "IRIDIUM 33 DEB", "OBJECT_ID": "1997-051AP", "EPOCH": "2025-12-25T13:47:27.423744", "MEAN_MOTION": 14.45913655, "ECCENTRICITY": 0.0022685, "INCLINATION": 86.3733, "RA_OF_ASC_NODE": 52.7586, "ARG_OF_PERICENTER": 137.4912, "MEAN_ANOMALY": 353.9762, "EPHEMERIS_TYPE": 0, "CLASSIFICATION_TYPE": "U", "NORAD_CAT_ID": 33870, "ELEMENT_SET_NO": 999, "REV_AT_EPOCH": 88322, "BSTAR": 0.00071363, "MEAN_MOTION_DOT": 2.564e-05, "MEAN_MOTION_DDOT": 0}, "tle": {"line1": "1 33870U 97051AP  25359.57462296  .00002564  00000+0  71363-3 0  9997", "line2": "2 33870  86.3733  52.7586 0022685 137.4912 353.9762 14.45913655883227"}}, "geometry": {"type": "Point", "coordinates": [-97.33366331065629, -82.78521248383404]}}, {"type": "Feature", "properties": {"norad_id": 33881, "name": "IRIDIUM 33 DEB", "group": "iridium-33-debris", "lat": -74.53574753643625, "lon": 87.79608643050894, "alt_km": 749.4934422981078, "timestamp": "2025-12-25T22:42:17.398121+00:00", "meta": {"OBJECT_NAME": "IRIDIUM 33 DEB", "OBJECT_ID": "1997-051BA", "EPOCH": "2025-12-24T19:37:00.349824", "MEAN_MOTION": 14.5678795, "ECCENTRICITY": 0.00611156, "INCLINATION": 86.3859, "RA_OF_ASC_NODE": 101.4931, "ARG_OF_PERICENTER": 135.6602, "MEAN_ANOMALY": 353.6404, "EPHEMERIS_TYPE": 0, "CLASSIFICATION_TYPE": "U", "NORAD_CAT_ID": 33881, "ELEMENT_SET_NO": 999, "REV_AT_EPOCH": 87676, "BSTAR": 0.0022055938, "MEAN_MOTION_DOT": 0.0001015, "MEAN_MOTION_DDOT": 0}, "tle": {"line1": "1 33881U 97051BA  25358.81736516  .00010150  00000+0  22056-2 0  9998", "line2": "2 33881  86.3859 101.4931 0061115 135.6602 353.6404 14.56787950876761"}}, "geometry": {"type": "Point", "coordinates": [87.79608643050894, -74.53574753643625]}}, {"type": "Feature", "properties": {"norad_id": 33884, "name": "IRIDIUM 33 DEB", "group": "iridium-33-debris", "lat": 37.91041059534245, "lon": -178.9777650413536, "alt_km": 637.8734253315997, "timestamp": "2025-12-25T22:42:17.398132+00:00", "meta": {"OBJECT_NAME": "IRIDIUM 33 DEB", "OBJECT_ID": "1997-051BD", "EPOCH": "2025-12-25T12:53:56.976864", "MEAN_MOTION": 14.77683162, "ECCENTRICITY": 0.0008817, "INCLINATION": 86.3703, "RA_OF_ASC_NODE": 4.0402, "ARG_OF_PERICENTER": 272.7361, "MEAN_ANOMALY": 217.2225, "EPHEMERIS_TYPE": 0, "CLASSIFICATION_TYPE": "U", "NORAD_CAT_ID": 33884, "ELEMENT_SET_NO": 999, "REV_AT_EPOCH": 89036, "BSTAR": 0.0015759, "MEAN_MOTION_DOT": 0.00011321, "MEAN_MOTION_DDOT": 0}, "tle": {"line1": "1 33884U 97051BD  25359.53746501  .00011321  00000+0  15759-2 0  9999", "line2": "2 33884  86.3703   4.0402 0008817 272.7361 217.2225 14.77683162890369"}}, "geometry": {"type": "Point", "coordinates": [-178.9777650413536, 37.91041059534245]}}, {"type": "Feature", "properties": {"norad_id": 33886, "name": "IRIDIUM 33 DEB", "group": "iridium-33-debris", "lat": -77.42720777243417, "lon": -101.84926718932759, "alt_km": 774.5265808990762, "timestamp": "2025-12-25T22:42:17.398142+00:00", "meta": {"OBJECT_NAME": "IRIDIUM 33 DEB", "OBJECT_ID": "1997-051BF", "EPOCH": "2025-12-25T15:21:52.682112", "MEAN_MOTION": 14.36066491, "ECCENTRICITY": 0.0013547, "INCLINATION": 86.3819, "RA_OF_ASC_NODE": 61.7984, "ARG_OF_PERICENTER": 196.0416, "MEAN_ANOMALY": 281.5931, "EPHEMERIS_TYPE": 0, "CLASSIFICATION_TYPE": "U", "NORAD_CAT_ID": 33886, "ELEMENT_SET_NO": 999, "REV_AT_EPOCH": 88237, "BSTAR": 0.00019058, "MEAN_MOTION_DOT": 5.74e-06, "MEAN_MOTION_DDOT": 0}, "tle": {"line1": "1 33886U 97051BF  25359.64019308  .00000574  00000+0  19058-3 0  9996", "line2": "2 33886  86.3819  61.7984 0013547 196.0416 281.5931 14.36066491882374"}}, "geometry": {"type": "Point", "coordinates": [-101.84926718932759, -77.42720777243417]}}, {"type": "Feature", "properties": {"norad_id": 33887, "name": "IRIDIUM 33 DEB", "group": "iridium-33-debris", "lat": -69.27928277359261, "lon": -172.46137863829335, "alt_km": 773.7889172015657, "timestamp": "2025-12-25T22:42:17.398152+00:00", "meta": {"OBJECT_NAME": "IRIDIUM 33 DEB", "OBJECT_ID": "1997-051BG", "EPOCH": "2025-12-25T01:50:13.201152", "MEAN_MOTION": 14.37231733, "ECCENTRICITY": 0.00057849, "INCLINATION": 86.3043, "RA_OF_ASC_NODE": 358.0753, "ARG_OF_PERICENTER": 179.6912, "MEAN_ANOMALY": 253.8578, "EPHEMERIS_TYPE": 0, "CLASSIFICATION_TYPE": "U", "NORAD_CAT_ID": 33887, "ELEMENT_SET_NO": 999, "REV_AT_EPOCH": 88342, "BSTAR": 0.00014791728, "MEAN_MOTION_DOT": 4.6e-06, "MEAN_MOTION_DDOT": 0}, "tle": {"line1": "1 33887U 97051BG  25359.07654168  .00000460  00000+0  14792-3 0  9997", "line2": "2 33887  86.3043 358.0753 0005784 179.6912 253.8578 14.37231733883422"}}, "geometry": {"type": "Point", "coordinates": [-172.46137863829335, -69.27928277359261]}}, {"type": "Feature", "properties": {"norad_id": 33953, "name": "IRIDIUM 33 DEB", "group": "iridium-33-debris", "lat": -66.75847125969496, "lon": -123.48432227715729, "alt_km": 727.6410536711883, "timestamp": "2025-12-25T22:42:17.398163+00:00", "meta": {"OBJECT_NAME": "IRIDIUM 33 DEB", "OBJECT_ID": "1997-051BN", "EPOCH": "2025-12-25T15:33:55.183968", "MEAN_MOTION": 14.55441742, "ECCENTRICITY": 0.001753, "INCLINATION": 86.3832, "RA_OF_ASC_NODE": 48.1755, "ARG_OF_PERICENTER": 63.1805, "MEAN_ANOMALY": 66.1443, "EPHEMERIS_TYPE": 0, "CLASSIFICATION_TYPE": "U", "NORAD_CAT_ID": 33953, "ELEMENT_SET_NO": 999, "REV_AT_EPOCH": 88491, "BSTAR": 0.0011189, "MEAN_MOTION_DOT": 4.893e-05, "MEAN_MOTION_DDOT": 0}, "tle": {"line1": "1 33953U 97051BN  25359.64855537  .00004893  00000+0  11189-2 0  9997", "line2": "2 33953  86.3832  48.1755 0017530  63.1805  66.1443 14.55441742884915"}}, "geometry": {"type": "Point", "coordinates": [-123.48432227715729, -66.75847125969496]}}, {"type": "Feature", "properties": {"norad_id": 33960, "name": "IRIDIUM 33 DEB", "group": "iridium-33-debris", "lat": 41.43083115485137, "lon": -73.3990575488759, "alt_km": 602.7331696147467, "timestamp": "2025-12-25T22:42:17.398173+00:00", "meta": {"OBJECT_NAME": "IRIDIUM 33 DEB", "OBJECT_ID": "1997-051BV", "EPOCH": "2025-12-25T05:26:42.762912", "MEAN_MOTION": 14.85811675, "ECCENTRICITY": 0.0007121, "INCLINATION": 86.2536, "RA_OF_ASC_NODE": 283.625, "ARG_OF_PERICENTER": 40.2762, "MEAN_ANOMALY": 117.1515, "EPHEMERIS_TYPE": 0, "CLASSIFICATION_TYPE": "U", "NORAD_CAT_ID": 33960, "ELEMENT_SET_NO": 999, "REV_AT_EPOCH": 89052, "BSTAR": 0.003315, "MEAN_MOTION_DOT": 0.00028953, "MEAN_MOTION_DDOT": 0}, "tle": {"line1": "1 33960U 97051BV  25359.22688383  .00028953  00000+0  33150-2 0  9997", "line2": "2 33960  86.2536 283.6250 0007121  40.2762 117.1515 14.85811675890522"}}, "geometry": {"type": "Point", "coordinates": [-73.3990575488759, 41.43083115485137]}}, {"type": "Feature", "properties": {"norad_id": 33966, "name": "IRIDIUM 33 DEB", "group": "iridium-33-debris", "lat": 80.08078933889978, "lon": -160.79728322544935, "alt_km": 715.3389289274, "timestamp": "2025-12-25T22:42:17.398184+00:00", "meta": {"OBJECT_NAME": "IRIDIUM 33 DEB", "OBJECT_ID": "1997-051CB", "EPOCH": "2025-12-25T12:53:56.995008", "MEAN_MOTION": 14.49641936, "ECCENTRICITY": 0.0008794, "INCLINATION": 86.391, "RA_OF_ASC_NODE": 40.5342, "ARG_OF_PERICENTER": 148.7203, "MEAN_ANOMALY": 339.7416, "EPHEMERIS_TYPE": 0, "CLASSIFICATION_TYPE": "U", "NORAD_CAT_ID": 33966, "ELEMENT_SET_NO": 999, "REV_AT_EPOCH": 88627, "BSTAR": 0.00048825, "MEAN_MOTION_DOT": 1.896e-05, "MEAN_MOTION_DDOT": 0}, "tle": {"line1": "1 33966U 97051CB  25359.53746522  .00001896  00000+0  48825-3 0  9990", "line2": "2 33966  86.3910  40.5342 0008794 148.7203 339.7416 14.49641936886278"}}, "geometry": {"type": "Point", "coordinates": [-160.79728322544935, 80.08078933889978]}}, {"type": "Feature", "properties": {"norad_id": 34071, "name": "IRIDIUM 33 DEB", "group": "iridium-33-debris", "lat": 20.024256096561892, "lon": -169.24761506225795, "alt_km": 727.0715499088283, "timestamp": "2025-12-25T22:42:17.398194+00:00", "meta": {"OBJECT_NAME": "IRIDIUM 33 DEB", "OBJECT_ID": "1997-051CE", "EPOCH": "2025-12-25T12:01:48.648000", "MEAN_MOTION": 14.49519816, "ECCENTRICITY": 0.0009841, "INCLINATION": 86.3451, "RA_OF_ASC_NODE": 12.2805, "ARG_OF_PERICENTER": 73.6013, "MEAN_ANOMALY": 286.6272, "EPHEMERIS_TYPE": 0, "CLASSIFICATION_TYPE": "U", "NORAD_CAT_ID": 34071, "ELEMENT_SET_NO": 999, "REV_AT_EPOCH": 88519, "BSTAR": 0.00061333, "MEAN_MOTION_DOT": 2.371e-05, "MEAN_MOTION_DDOT": 0}, "tle": {"line1": "1 34071U 97051CE  25359.50125750  .00002371  00000+0  61333-3 0  9997", "line2": "2 34071  86.3451  12.2805 0009841  73.6013 286.6272 14.49519816885196"}}, "geometry": {"type": "Point", "coordinates": [-169.24761506225795, 20.024256096561892]}}, {"type": "Feature", "properties": {"norad_id": 34077, "name": "IRIDIUM 33 DEB", "group": "iridium-33-debris", "lat": 13.892895504512651, "lon": 46.58466789451862, "alt_km": 672.3627661969558, "timestamp": "2025-12-25T22:42:17.398204+00:00", "meta": {"OBJECT_NAME": "IRIDIUM 33 DEB", "OBJECT_ID": "1997-051CL", "EPOCH": "2025-12-25T15:09:22.159872", "MEAN_MOTION": 14.64997982, "ECCENTRICITY": 0.0008673, "INCLINATION": 86.3846, "RA_OF_ASC_NODE": 45.8272, "ARG_OF_PERICENTER": 357.0733, "MEAN_ANOMALY": 159.1877, "EPHEMERIS_TYPE": 0, "CLASSIFICATION_TYPE": "U", "NORAD_CAT_ID": 34077, "ELEMENT_SET_NO": 999, "REV_AT_EPOCH": 88521, "BSTAR": 0.0015833, "MEAN_MOTION_DOT": 8.51e-05, "MEAN_MOTION_DDOT": 0}, "tle": {"line1": "1 34077U 97051CL  25359.63150648  .00008510  00000+0  15833-2 0  9995", "line2": "2 34077  86.3846  45.8272 0008673 357.0733 159.1877 14.64997982885219"}}, "geometry": {"type": "Point", "coordinates": [46.58466789451862, 13.892895504512651]}}]}